ONEWEB-0032             
1 45141U 20008L   24096.56058162  .00000544  00000+0  15196-2 0  9995
2 45141  87.8993 195.7929 0001752 100.6682 259.4643 13.10457223203186
ONEWEB-0033             
1 45142U 20008M   24096.84080669 -.00000670  00000+0 -19587-2 0  9994
2 45142  87.8991 195.7464 0001916 113.5462 246.5867 13.10243095204030
ONEWEB-0035             
1 45143U 20008N   24096.56713619  .00000646  00000+0  18114-2 0  9998
2 45143  87.8997 195.7778 0001863 109.6476 250.4852 13.10427122203714
ONEWEB-0036             
1 45144U 20008P   24096.55724459 -.00000159  00000+0 -49207-3 0  9991
2 45144  87.8998 195.7397 0001964 100.6493 259.4856 13.10469782203255
ONEWEB-0038             
1 45145U 20008Q   24096.59033794  .00000212  00000+0  56250-3 0  9995
2 45145  87.9035 180.6723 0001245  87.8349 272.2921 13.11416964205133
ONEWEB-0039             
1 45146U 20008R   24096.76771625 -.00000645  00000+0 -18888-2 0  9993
2 45146  87.8994 195.7148 0001970  90.7994 269.3359 13.10230606203854
ONEWEB-0040             
1 45147U 20008S   24096.83748978 -.00000703  00000+0 -20537-2 0  9996
2 45147  87.9001 195.6978 0001816 103.9204 256.2126 13.10258878203572
ONEWEB-0041             
1 45148U 20008T   24096.59427990  .00000082  00000+0  10900-3 0  9990
2 45148  87.9465 170.7998 0017927  19.8218 340.3623 13.48452271209884
